SHINSEI (MS-F2)         
1 05485U 71080A   23291.87766142  .00000027  00000+0  25729-4 0  9993
2 05485  32.0551 350.0917 0640097  90.4866 276.9050 12.74175359425187
PROSPERO (BLACK ARROW)  
1 05580U 71093A   23291.60710833  .00003961  00000+0  87636-3 0  9994
2 05580  82.0410  61.4804 0520913 126.6881 238.3338 13.96813683612490
AKEBONO (EXOS-D)        
1 19822U 89016A   23292.14966707  .00254261  75403-5  25620-2 0  9995
2 19822  74.9529 252.4138 1094287  24.3460 340.5540 13.54034985192527
CASSIOPE                
1 39265U 13055A   23291.93910866  .00017091  00000+0  40403-3 0  9999
2 39265  80.9559 102.7964 0550024 292.5917  61.7983 14.56552437522963
SHERPA-LTC2             
1 53754U 22107BG  23291.81043751  .00005534  00000+0  33443-3 0  9998
2 53754  53.2396 327.0884 0460505  60.0008 304.5835 14.52503621 60339
